NORAD_CAT_ID,OBJECT_NAME,OBJECT_TYPE,EPOCH,MEAN_MOTION,ECCENTRICITY,INCLINATION,RA_OF_ASC_NODE,ARG_OF_PERICENTER,MEAN_ANOMALY,BSTAR,MEAN_MOTION_DOT,MEAN_MOTION_DDOT,TLE_LINE0,TLE_LINE1,TLE_LINE2,SEMIMAJOR_AXIS,PERIOD,APOGEE,PERIGEE,DECAYED
54167.0,STARLINK-5243,PAYLOAD,2023-07-26 14:36:26,15.08847774,8.9e-05,53.2182,350.407,73.4724,286.6366,0.00012018,1.626e-05,0.0,0 STARLINK-5243,1 54167U 22141L   23207.60864050  .00001626  00000-0  12018-3 0  9996,2 54167  53.2182 350.4070 0000890  73.4724 286.6366 15.08847774 41226,6917.857,95.437,540.337,539.106,0.0
54167.0,STARLINK-5243,PAYLOAD,2023-07-27 16:02:37,15.08834825,0.0001019,53.2184,345.6502,91.9379,268.173,3.6604e-05,2.95e-06,0.0,0 STARLINK-5243,1 54167U 22141L   23208.66849070  .00000295  00000-0  36604-4 0  9997,2 54167  53.2184 345.6502 0001019  91.9379 268.1730 15.08834825 41389,6917.896,95.438,540.466,539.056,0.0
54167.0,STARLINK-5243,PAYLOAD,2023-07-28 09:31:52,15.08838816,8.12e-05,53.2174,342.3774,91.7922,268.3163,-2.9403e-06,-3.34e-06,0.0,0 STARLINK-5243,1 54167U 22141L   23209.39713081 -.00000334  00000-0 -29403-5 0  9996,2 54167  53.2174 342.3774 0000812  91.7922 268.3163 15.08838816 41505,6917.884,95.438,540.311,539.187,0.0
54167.0,STARLINK-5243,PAYLOAD,2023-07-28 17:28:47,15.08845528,7.77e-05,53.2176,340.8917,86.6768,273.4313,5.9186e-05,6.55e-06,0.0,0 STARLINK-5243,1 54167U 22141L   23209.72832447  .00000655  00000-0  59186-4 0  9995,2 54167  53.2176 340.8917 0000777  86.6768 273.4313 15.08845528 41546,6917.863,95.437,540.266,539.191,0.0
54167.0,STARLINK-5243,PAYLOAD,2023-07-29 09:22:39,15.08834188,9.54e-05,53.2192,337.9198,104.1668,255.943,0.00010819,1.434e-05,0.0,0 STARLINK-5243,1 54167U 22141L   23210.39073083  .00001434  00000-0  10819-3 0  9998,2 54167  53.2192 337.9198 0000954 104.1668 255.9430 15.08834188 41640,6917.898,95.438,540.423,539.103,0.0
54167.0,STARLINK-5243,PAYLOAD,2023-07-29 15:44:11,15.08840965,7.1e-05,53.2168,336.7275,84.2016,275.9057,0.00014944,2.092e-05,0.0,0 STARLINK-5243,1 54167U 22141L   23210.65568640  .00002092  00000-0  14944-3 0  9999,2 54167  53.2168 336.7275 0000710  84.2016 275.9057 15.08840965 41682,6917.877,95.437,540.234,539.251,0.0
54167.0,STARLINK-5243,PAYLOAD,2023-07-30 09:13:26,15.0883917,0.0001014,53.218,333.4586,99.1211,260.9896,-3.5856e-05,-8.58e-06,0.0,0 STARLINK-5243,1 54167U 22141L   23211.38433477 -.00000858  00000-0 -35856-4 0  9995,2 54167  53.2180 333.4586 0001014  99.1211 260.9896 15.08839170 41798,6917.883,95.438,540.449,539.046,0.0
54167.0,STARLINK-5243,PAYLOAD,2023-07-30 15:34:58,15.088457,7.16e-05,53.2185,332.2682,85.3836,274.7238,6.6999e-05,7.79e-06,0.0,0 STARLINK-5243,1 54167U 22141L   23211.64928816  .00000779  00000-0  66999-4 0  9992,2 54167  53.2185 332.2682 0000716  85.3836 274.7238 15.08845700 41839,6917.863,95.437,540.223,539.233,0.0
54167.0,STARLINK-5243,PAYLOAD,2023-07-31 09:04:13,15.08836577,0.000111,53.2184,328.9973,82.3117,277.8001,9.5984e-05,1.24e-05,0.0,0 STARLINK-5243,1 54167U 22141L   23212.37793397  .00001240  00000-0  95984-4 0  9997,2 54167  53.2184 328.9973 0001110  82.3117 277.8001 15.08836577 41947,6917.891,95.438,540.524,538.988,0.0
54167.0,STARLINK-5243,PAYLOAD,2023-07-31 15:25:44,15.08853637,8.68e-05,53.2182,327.8068,69.6572,290.4514,0.000136,1.878e-05,0.0,0 STARLINK-5243,1 54167U 22141L   23212.64288125  .00001878  00000-0  13600-3 0  9996,2 54167  53.2182 327.8068 0000868  69.6572 290.4514 15.08853637 41980,6917.839,95.437,540.304,539.103,0.0
54167.0,STARLINK-5243,PAYLOAD,2023-08-01 16:51:55,15.088446,0.0001254,53.2189,323.0501,64.4746,295.6375,7.6489e-05,9.3e-06,0.0,0 STARLINK-5243,1 54167U 22141L   23213.70273069  .00000930  00000-0  76489-4 0  9998,2 54167  53.2189 323.0501 0001254  64.4746 295.6375 15.08844600 42144,6917.866,95.437,540.599,538.864,0.0
54167.0,STARLINK-5243,PAYLOAD,2023-08-02 07:10:24,15.0883714,9.3e-05,53.2173,320.3734,77.2204,282.8892,9.2658e-05,1.187e-05,0.0,0 STARLINK-5243,1 54167U 22141L   23214.29889337  .00001187  00000-0  92658-4 0  9995,2 54167  53.2173 320.3734 0000930  77.2204 282.8892 15.08837140 42239,6917.889,95.438,540.397,539.111,0.0
54167.0,STARLINK-5243,PAYLOAD,2023-08-02 13:31:56,15.08844343,0.0001078,53.2185,319.1846,89.7003,270.4113,0.00013382,1.843e-05,0.0,0 STARLINK-5243,1 54167U 22141L   23214.56384793  .00001843  00000-0  13382-3 0  9996,2 54167  53.2185 319.1846 0001078  89.7003 270.4113 15.08844343 42277,6917.867,95.437,540.478,538.986,0.0
54167.0,STARLINK-5243,PAYLOAD,2023-08-04 10:02:45,15.08834294,0.0001089,53.2188,310.8596,91.5336,268.578,-5.252e-05,-1.123e-05,0.0,0 STARLINK-5243,1 54167U 22141L   23216.41857715 -.00001123  00000-0 -52520-4 0  9992,2 54167  53.2188 310.8596 0001089  91.5336 268.5780 15.08834294 42555,6917.898,95.438,540.516,539.009,0.0
54167.0,STARLINK-5243,PAYLOAD,2023-08-05 09:53:31,15.08843882,0.0001172,53.2184,306.4022,50.6341,309.4755,9.6655e-05,1.251e-05,0.0,0 STARLINK-5243,1 54167U 22141L   23217.41216851  .00001251  00000-0  96655-4 0  9990,2 54167  53.2184 306.4022 0001172  50.6341 309.4755 15.08843882 42708,6917.869,95.437,540.544,538.923,0.0
54167.0,STARLINK-5243,PAYLOAD,2023-08-05 13:04:16,15.08853819,0.0001141,53.2183,305.8046,91.0425,269.0698,0.00015544,2.188e-05,0.0,0 STARLINK-5243,1 54167U 22141L   23217.54464026  .00002188  00000-0  15544-3 0  9990,2 54167  53.2183 305.8046 0001141  91.0425 269.0698 15.08853819 42724,6917.838,95.437,540.492,538.914,0.0
54167.0,STARLINK-5243,PAYLOAD,2023-08-05 22:36:37,15.08834159,0.0001281,53.2184,304.0192,104.4045,255.7089,6.3224e-05,7.18e-06,0.0,0 STARLINK-5243,1 54167U 22141L   23217.94209491  .00000718  00000-0  63224-4 0  9993,2 54167  53.2184 304.0192 0001281 104.4045 255.7089 15.08834159 42788,6917.898,95.438,540.649,538.877,0.0
54167.0,STARLINK-5243,PAYLOAD,2023-08-06 09:44:20,15.08815453,0.0001348,53.2185,301.9389,110.1113,250.0024,-1.5816e-05,-5.39e-06,0.0,0 STARLINK-5243,1 54167U 22141L   23218.40579491 -.00000539  00000-0 -15816-4 0  9992,2 54167  53.2185 301.9389 0001348 110.1113 250.0024 15.08815453 42858,6917.955,95.439,540.753,538.888,0.0
54167.0,STARLINK-5243,PAYLOAD,2023-08-06 16:05:52,15.0882329,0.0001437,53.2178,300.7497,111.3,248.8146,-4.5466e-05,-1.011e-05,0.0,0 STARLINK-5243,1 54167U 22141L   23218.67074718 -.00001011  00000-0 -45466-4 0  9993,2 54167  53.2178 300.7497 0001437 111.3000 248.8146 15.08823290 42896,6917.931,95.439,540.791,538.802,0.0
54167.0,STARLINK-5243,PAYLOAD,2023-08-07 09:35:07,15.0883493,0.0001145,53.2156,297.4775,113.7612,246.35,0.00065412,0.00010136,0.0,0 STARLINK-5243,1 54167U 22141L   23219.39938979  .00010136  00000-0  65412-3 0  9999,2 54167  53.2156 297.4775 0001145 113.7612 246.3500 15.08834930 43008,6917.896,95.438,540.553,538.969,0.0
54167.0,STARLINK-5243,PAYLOAD,2023-08-08 11:01:16,15.08870244,0.0001019,53.2147,292.719,102.9333,257.1773,0.0011113,0.00017457,0.0,0 STARLINK-5243,1 54167U 22141L   23220.45922172  .00017457  00000-0  11113-2 0  9997,2 54167  53.2147 292.7190 0001019 102.9333 257.1773 15.08870244 43164,6917.788,95.436,540.358,538.948,0.0
54167.0,STARLINK-5243,PAYLOAD,2023-08-08 22:08:58,15.08856583,0.0001221,53.2149,290.6374,82.3668,277.7462,0.00049879,7.663e-05,0.0,0 STARLINK-5243,1 54167U 22141L   23220.92290193  .00007663  00000-0  49879-3 0  9999,2 54167  53.2149 290.6374 0001221  82.3668 277.7462 15.08856583 43235,6917.83,95.437,540.539,538.85,0.0
54167.0,STARLINK-5243,PAYLOAD,2023-08-09 10:52:03,15.08841725,9.49e-05,53.215,288.2588,80.5111,279.5989,0.00018793,2.705e-05,0.0,0 STARLINK-5243,1 54167U 22141L   23221.45282313  .00002705  00000-0  18793-3 0  9996,2 54167  53.2150 288.2588 0000949  80.5111 279.5989 15.08841725 43311,6917.875,95.437,540.397,539.084,0.0
54167.0,STARLINK-5243,PAYLOAD,2023-08-10 13:53:37,15.08849813,0.0001128,53.2159,283.2026,85.4602,274.6519,0.00034154,5.153e-05,0.0,0 STARLINK-5243,1 54167U 22141L   23222.57890237  .00005153  00000-0  34154-3 0  9999,2 54167  53.2159 283.2026 0001128  85.4602 274.6519 15.08849813 43480,6917.85,95.437,540.496,538.935,0.0
54167.0,STARLINK-5243,PAYLOAD,2023-08-11 10:33:37,15.08846159,0.0001096,53.2158,279.3362,83.1543,276.9574,0.00022029,3.22e-05,0.0,0 STARLINK-5243,1 54167U 22141L   23223.44002244  .00003220  00000-0  22029-3 0  9990,2 54167  53.2158 279.3362 0001096  83.1543 276.9574 15.08846159 43612,6917.862,95.437,540.485,538.968,0.0
54167.0,STARLINK-5243,PAYLOAD,2023-08-12 02:27:29,15.0883776,0.0001072,53.2158,276.3621,94.0908,266.0207,-3.1462e-05,-7.88e-06,0.0,0 STARLINK-5243,1 54167U 22141L   23224.10242432 -.00000788  00000-0 -31462-4 0  9999,2 54167  53.2158 276.3621 0001072  94.0908 266.0207 15.08837760 43719,6917.887,95.438,540.494,539.011,0.0
54167.0,STARLINK-5243,PAYLOAD,2023-08-12 13:35:10,15.0884663,0.0001125,53.2158,274.28,94.9109,265.2012,0.00010602,1.4e-05,0.0,0 STARLINK-5243,1 54167U 22141L   23224.56609932  .00001400  00000-0  10602-3 0  9993,2 54167  53.2158 274.2800 0001125  94.9109 265.2012 15.08846630 43784,6917.86,95.437,540.503,538.947,0.0
54167.0,STARLINK-5243,PAYLOAD,2023-08-13 03:53:39,15.088363,0.0001124,53.2157,271.6057,90.2526,269.8595,-2.2556e-05,-6.47e-06,0.0,0 STARLINK-5243,1 54167U 22141L   23225.16226439 -.00000647  00000-0 -22556-4 0  9993,2 54167  53.2157 271.6057 0001124  90.2526 269.8595 15.08836300 43878,6917.892,95.438,540.534,538.979,0.0
54167.0,STARLINK-5243,PAYLOAD,2023-08-14 10:05:59,15.08842462,0.000117,53.2167,265.9566,92.4287,267.6839,9.678e-05,1.253e-05,0.0,0 STARLINK-5243,1 54167U 22141L   23226.42082498  .00001253  00000-0  96780-4 0  9990,2 54167  53.2167 265.9566 0001170  92.4287 267.6839 15.08842462 44064,6917.873,95.437,540.547,538.928,0.0
54167.0,STARLINK-5243,PAYLOAD,2023-08-15 11:32:09,15.08841681,0.0001193,53.2161,261.1974,83.9201,276.1927,0.00012024,1.626e-05,0.0,0 STARLINK-5243,1 54167U 22141L   23227.48066624  .00001626  00000-0  12024-3 0  9992,2 54167  53.2161 261.1974 0001193  83.9201 276.1927 15.08841681 44228,6917.875,95.437,540.566,538.915,0.0
